{
  "type": "FeatureCollection",
  "features": [
    {
      "type": "Feature",
      "properties": {
        "norad_id": 32275,
        "name": "COSMOS 2433 (720)",
        "group": "glo-ops",
        "lat": 65.32754842478676,
        "lon": 62.18401073322662,
        "alt_km": 19135.746020543847,
        "timestamp": "2025-12-18T08:58:43.671969+00:00",
        "meta_object_name": "COSMOS 2433 (720)",
        "meta_object_id": "2007-052A",
        "meta_epoch": "2025-12-14T23:11:38.718240",
        "meta_mean_motion": 2.13103955,
        "meta_eccentricity": 0.00054201,
        "meta_inclination": 65.6819,
        "meta_ra_of_asc_node": 322.1305,
        "meta_arg_of_pericenter": 253.5649,
        "meta_mean_anomaly": 106.3736,
        "meta_ephemeris_type": 0,
        "meta_classification_type": "U",
        "meta_norad_cat_id": 32275,
        "meta_element_set_no": 999,
        "meta_rev_at_epoch": 14113,
        "meta_bstar": 0,
        "meta_mean_motion_dot": -6.5e-07,
        "meta_mean_motion_ddot": 0,
        "tle_line1": "1 32275U 07052A   25348.96642035 -.00000065  00000+0  00000+0 0  9990",
        "tle_line2": "2 32275  65.6819 322.1305 0005420 253.5649 106.3736  2.13103955141132"
      },
      "geometry": {
        "type": "Point",
        "coordinates": [
          62.18401073322662,
          65.32754842478676
        ]
      }
    },
    {
      "type": "Feature",
      "properties": {
        "norad_id": 32276,
        "name": "COSMOS 2432 (719)",
        "group": "glo-ops",
        "lat": 34.82602756493974,
        "lon": -19.55467553402793,
        "alt_km": 19124.007053637302,
        "timestamp": "2025-12-18T08:58:43.671992+00:00",
        "meta_object_name": "COSMOS 2432 (719)",
        "meta_object_id": "2007-052B",
        "meta_epoch": "2025-12-15T06:31:38.583840",
        "meta_mean_motion": 2.13103103,
        "meta_eccentricity": 0.00112605,
        "meta_inclination": 65.6973,
        "meta_ra_of_asc_node": 322.2446,
        "meta_arg_of_pericenter": 312.4858,
        "meta_mean_anomaly": 226.3212,
        "meta_ephemeris_type": 0,
        "meta_classification_type": "U",
        "meta_norad_cat_id": 32276,
        "meta_element_set_no": 999,
        "meta_rev_at_epoch": 14116,
        "meta_bstar": 0,
        "meta_mean_motion_dot": -6.6e-07,
        "meta_mean_motion_ddot": 0,
        "tle_line1": "1 32276U 07052B   25349.27197435 -.00000066  00000+0  00000+0 0  9996",
        "tle_line2": "2 32276  65.6973 322.2446 0011260 312.4858 226.3212  2.13103103141167"
      },
      "geometry": {
        "type": "Point",
        "coordinates": [
          -19.55467553402793,
          34.82602756493974
        ]
      }
    },
    {
      "type": "Feature",
      "properties": {
        "norad_id": 32393,
        "name": "COSMOS 2434 (721)",
        "group": "glo-ops",
        "lat": -13.756882153171397,
        "lon": -168.7516605431939,
        "alt_km": 19131.551713511013,
        "timestamp": "2025-12-18T08:58:43.672008+00:00",
        "meta_object_name": "COSMOS 2434 (721)",
        "meta_object_id": "2007-065A",
        "meta_epoch": "2025-12-15T08:26:38.759136",
        "meta_mean_motion": 2.13101367,
        "meta_eccentricity": 0.00044341,
        "meta_inclination": 64.3148,
        "meta_ra_of_asc_node": 198.1152,
        "meta_arg_of_pericenter": 71.4602,
        "meta_mean_anomaly": 114.7825,
        "meta_ephemeris_type": 0,
        "meta_classification_type": "U",
        "meta_norad_cat_id": 32393,
        "meta_element_set_no": 999,
        "meta_rev_at_epoch": 13985,
        "meta_bstar": 0,
        "meta_mean_motion_dot": 1.05e-06,
        "meta_mean_motion_ddot": 0,
        "tle_line1": "1 32393U 07065A   25349.35183749  .00000105  00000+0  00000+0 0  9995",
        "tle_line2": "2 32393  64.3148 198.1152 0004434  71.4602 114.7825  2.13101367139858"
      },
      "geometry": {
        "type": "Point",
        "coordinates": [
          -168.7516605431939,
          -13.756882153171397
        ]
      }
    },
    {
      "type": "Feature",
      "properties": {
        "norad_id": 32395,
        "name": "COSMOS 2436 (723)",
        "group": "glo-ops",
        "lat": 52.68995910335922,
        "lon": -21.071499665442932,
        "alt_km": 19138.56293006431,
        "timestamp": "2025-12-18T08:58:43.672022+00:00",
        "meta_object_name": "COSMOS 2436 (723)",
        "meta_object_id": "2007-065C",
        "meta_epoch": "2025-12-16T08:11:52.503360",
        "meta_mean_motion": 2.13100112,
        "meta_eccentricity": 0.00177699,
        "meta_inclination": 64.3235,
        "meta_ra_of_asc_node": 198.1521,
        "meta_arg_of_pericenter": 9.2217,
        "meta_mean_anomaly": 349.3751,
        "meta_ephemeris_type": 0,
        "meta_classification_type": "U",
        "meta_norad_cat_id": 32395,
        "meta_element_set_no": 999,
        "meta_rev_at_epoch": 13982,
        "meta_bstar": 0,
        "meta_mean_motion_dot": 1.1e-06,
        "meta_mean_motion_ddot": 0,
        "tle_line1": "1 32395U 07065C   25350.34157990  .00000110  00000+0  00000+0 0  9993",
        "tle_line2": "2 32395  64.3235 198.1521 0017769   9.2217 349.3751  2.13100112139821"
      },
      "geometry": {
        "type": "Point",
        "coordinates": [
          -21.071499665442932,
          52.68995910335922
        ]
      }
    },
    {
      "type": "Feature",
      "properties": {
        "norad_id": 36111,
        "name": "COSMOS 2456 (730)",
        "group": "glo-ops",
        "lat": 33.93227736406671,
        "lon": -121.19076746332944,
        "alt_km": 19133.120074192047,
        "timestamp": "2025-12-18T08:58:43.672034+00:00",
        "meta_object_name": "COSMOS 2456 (730)",
        "meta_object_id": "2009-070A",
        "meta_epoch": "2025-12-17T17:12:45.215136",
        "meta_mean_motion": 2.13103683,
        "meta_eccentricity": 0.00031115,
        "meta_inclination": 64.9035,
        "meta_ra_of_asc_node": 77.1675,
        "meta_arg_of_pericenter": 298.0972,
        "meta_mean_anomaly": 59.8689,
        "meta_ephemeris_type": 0,
        "meta_classification_type": "U",
        "meta_norad_cat_id": 36111,
        "meta_element_set_no": 999,
        "meta_rev_at_epoch": 12455,
        "meta_bstar": 0,
        "meta_mean_motion_dot": -4.7e-07,
        "meta_mean_motion_ddot": 0,
        "tle_line1": "1 36111U 09070A   25351.71718999 -.00000047  00000+0  00000+0 0  9995",
        "tle_line2": "2 36111  64.9035  77.1675 0003111 298.0972  59.8689  2.13103683124556"
      },
      "geometry": {
        "type": "Point",
        "coordinates": [
          -121.19076746332944,
          33.93227736406671
        ]
      }
    },
    {
      "type": "Feature",
      "properties": {
        "norad_id": 36112,
        "name": "COSMOS 2457 (733)",
        "group": "glo-ops",
        "lat": -64.8915742616613,
        "lon": -10.450662750459367,
        "alt_km": 19140.8340473426,
        "timestamp": "2025-12-18T08:58:43.672045+00:00",
        "meta_object_name": "COSMOS 2457 (733)",
        "meta_object_id": "2009-070B",
        "meta_epoch": "2025-12-17T13:03:42.379200",
        "meta_mean_motion": 2.13100979,
        "meta_eccentricity": 0.00046214,
        "meta_inclination": 64.8886,
        "meta_ra_of_asc_node": 77.0209,
        "meta_arg_of_pericenter": 159.9242,
        "meta_mean_anomaly": 194.4541,
        "meta_ephemeris_type": 0,
        "meta_classification_type": "U",
        "meta_norad_cat_id": 36112,
        "meta_element_set_no": 999,
        "meta_rev_at_epoch": 12455,
        "meta_bstar": 0,
        "meta_mean_motion_dot": -4.8e-07,
        "meta_mean_motion_ddot": 0,
        "tle_line1": "1 36112U 09070B   25351.54424050 -.00000048  00000+0  00000+0 0  9990",
        "tle_line2": "2 36112  64.8886  77.0209 0004621 159.9242 194.4541  2.13100979124552"
      },
      "geometry": {
        "type": "Point",
        "coordinates": [
          -10.450662750459367,
          -64.8915742616613
        ]
      }
    },
    {
      "type": "Feature",
      "properties": {
        "norad_id": 36402,
        "name": "COSMOS 2460 (732)",
        "group": "glo-ops",
        "lat": -65.51037392139268,
        "lon": -127.91521778454481,
        "alt_km": 19129.436341087563,
        "timestamp": "2025-12-18T08:58:43.672057+00:00",
        "meta_object_name": "COSMOS 2460 (732)",
        "meta_object_id": "2010-007C",
        "meta_epoch": "2025-12-15T05:47:00.728160",
        "meta_mean_motion": 2.13106127,
        "meta_eccentricity": 0.00026664,
        "meta_inclination": 65.5278,
        "meta_ra_of_asc_node": 320.6882,
        "meta_arg_of_pericenter": 275.3459,
        "meta_mean_anomaly": 111.58,
        "meta_ephemeris_type": 0,
        "meta_classification_type": "U",
        "meta_norad_cat_id": 36402,
        "meta_element_set_no": 999,
        "meta_rev_at_epoch": 12281,
        "meta_bstar": 0,
        "meta_mean_motion_dot": -6.7e-07,
        "meta_mean_motion_ddot": 0,
        "tle_line1": "1 36402U 10007C   25349.24098065 -.00000067  00000+0  00000+0 0  9992",
        "tle_line2": "2 36402  65.5278 320.6882 0002666 275.3459 111.5800  2.13106127122817"
      },
      "geometry": {
        "type": "Point",
        "coordinates": [
          -127.91521778454481,
          -65.51037392139268
        ]
      }
    }
  ]
}